NORAD_CAT_ID,OBJECT_NAME,OBJECT_TYPE,EPOCH,MEAN_MOTION,ECCENTRICITY,INCLINATION,RA_OF_ASC_NODE,ARG_OF_PERICENTER,MEAN_ANOMALY,BSTAR,MEAN_MOTION_DOT,MEAN_MOTION_DDOT,TLE_LINE0,TLE_LINE1,TLE_LINE2,SEMIMAJOR_AXIS,PERIOD,APOGEE,PERIGEE,DECAYED
52874.0,STARLINK-4210,PAYLOAD,2024-05-04 02:40:36,15.08848496,0.0002423,53.2151,162.4194,89.5522,270.5748,0.00029001,4.331e-05,0.0,0 STARLINK-4210,1 52874U 22062AW  24125.11153857  .00004331  00000-0  29001-3 0  9999,2 52874  53.2151 162.4194 0002423  89.5522 270.5748 15.08848496104713,6917.854,95.437,541.396,538.043,0.0
52874.0,STARLINK-4210,PAYLOAD,2024-05-04 12:12:56,15.08829919,0.0001359,53.2154,160.6353,94.7023,265.4125,-0.00014938,-2.664e-05,0.0,0 STARLINK-4210,1 52874U 22062AW  24125.50898210 -.00002664  00000-0 -14938-3 0  9993,2 52874  53.2154 160.6353 0001359  94.7023 265.4125 15.08829919104771,6917.911,95.438,540.716,538.836,0.0
52874.0,STARLINK-4210,PAYLOAD,2024-05-05 12:03:43,15.08836834,0.0001362,53.2153,156.1751,96.3948,263.72,0.00064298,9.959e-05,0.0,0 STARLINK-4210,1 52874U 22062AW  24126.50259150  .00009959  00000-0  64298-3 0  9994,2 52874  53.2153 156.1751 0001362  96.3948 263.7200 15.08836834104432,6917.89,95.438,540.697,538.813,0.0
52874.0,STARLINK-4210,PAYLOAD,2024-05-05 18:25:16,15.0884132,0.0001397,53.2156,154.9857,96.9723,263.1428,0.00062377,9.654e-05,0.0,0 STARLINK-4210,1 52874U 22062AW  24126.76755171  .00009654  00000-0  62377-3 0  9994,2 52874  53.2156 154.9857 0001397  96.9723 263.1428 15.08841320104963,6917.876,95.437,540.708,538.775,0.0
52874.0,STARLINK-4210,PAYLOAD,2024-05-06 08:43:44,15.08858252,0.0001321,53.2148,152.3092,96.4262,263.6881,0.00080098,0.00012489,0.0,0 STARLINK-4210,1 52874U 22062AW  24127.36370696  .00012489  00000-0  80098-3 0  9996,2 52874  53.2148 152.3092 0001321  96.4262 263.6881 15.08858252104563,6917.825,95.436,540.603,538.776,0.0
52874.0,STARLINK-4210,PAYLOAD,2024-05-06 18:16:02,15.08864041,0.0001282,53.2146,150.525,94.865,265.2489,0.000727,0.00011309,0.0,0 STARLINK-4210,1 52874U 22062AW  24127.76114219  .00011309  00000-0  72700-3 0  9998,2 52874  53.2146 150.5250 0001282  94.8650 265.2489 15.08864041104628,6917.807,95.436,540.559,538.785,0.0
52874.0,STARLINK-4210,PAYLOAD,2024-05-07 05:23:44,15.08851564,0.0001566,53.2157,148.4429,101.209,258.9078,0.00016599,2.356e-05,0.0,0 STARLINK-4210,1 52874U 22062AW  24128.22482139  .00002356  00000-0  16599-3 0  9995,2 52874  53.2157 148.4429 0001566 101.2090 258.9078 15.08851564105181,6917.845,95.437,540.793,538.627,0.0
52874.0,STARLINK-4210,PAYLOAD,2024-05-07 10:09:54,15.08846979,0.0001417,53.2157,147.5516,97.308,262.8073,0.00011876,1.603e-05,0.0,0 STARLINK-4210,1 52874U 22062AW  24128.42354254  .00001603  00000-0  11876-3 0  9990,2 52874  53.2157 147.5516 0001417  97.3080 262.8073 15.08846979104729,6917.859,95.437,540.704,538.744,0.0
52874.0,STARLINK-4210,PAYLOAD,2024-05-07 18:06:49,15.08849273,0.0001421,53.216,146.0648,93.8735,266.2419,0.00011126,1.484e-05,0.0,0 STARLINK-4210,1 52874U 22062AW  24128.75473968  .00001484  00000-0  11126-3 0  9995,2 52874  53.2160 146.0648 0001421  93.8735 266.2419 15.08849273104773,6917.852,95.437,540.7,538.734,0.0
52874.0,STARLINK-4210,PAYLOAD,2024-05-08 05:14:31,15.08837509,0.0001422,53.2159,143.9835,91.9235,268.192,-0.00011615,-2.136e-05,0.0,0 STARLINK-4210,1 52874U 22062AW  24129.21842370 -.00002136  00000-0 -11615-3 0  9994,2 52874  53.2159 143.9835 0001422  91.9235 268.1920 15.08837509105330,6917.888,95.438,540.737,538.769,0.0
52874.0,STARLINK-4210,PAYLOAD,2024-05-08 10:00:41,15.08840303,0.0001445,53.2152,143.0922,94.1287,265.987,-3.8261e-05,-8.97e-06,0.0,0 STARLINK-4210,1 52874U 22062AW  24129.41714428 -.00000897  00000-0 -38261-4 0  9997,2 52874  53.2152 143.0922 0001445  94.1287 265.9870 15.08840303104871,6917.879,95.438,540.744,538.745,0.0
52874.0,STARLINK-4210,PAYLOAD,2024-05-08 17:57:36,15.0884733,0.0001401,53.2165,141.6049,92.1877,267.9275,2.9362e-05,1.79e-06,0.0,0 STARLINK-4210,1 52874U 22062AW  24129.74834346  .00000179  00000-0  29362-4 0  9998,2 52874  53.2165 141.6049 0001401  92.1877 267.9275 15.08847330104928,6917.858,95.437,540.692,538.754,0.0
52874.0,STARLINK-4210,PAYLOAD,2024-05-09 05:05:17,15.08853816,0.0001252,53.2162,139.523,91.3532,268.7603,0.00019516,2.821e-05,0.0,0 STARLINK-4210,1 52874U 22062AW  24130.21201337  .00002821  00000-0  19516-3 0  9995,2 52874  53.2162 139.5230 0001252  91.3532 268.7603 15.08853816105488,6917.838,95.437,540.569,538.837,0.0
52874.0,STARLINK-4210,PAYLOAD,2024-05-09 09:51:26,15.08870677,0.0001508,53.2172,138.6307,89.3575,270.759,0.0003109,4.668e-05,0.0,0 STARLINK-4210,1 52874U 22062AW  24130.41071783  .00004668  00000-0  31090-3 0  9999,2 52874  53.2172 138.6307 0001508  89.3575 270.7590 15.08870677105518,6917.787,95.436,540.695,538.608,0.0
52874.0,STARLINK-4210,PAYLOAD,2024-05-09 17:48:21,15.08876288,0.0001716,53.2165,137.1441,74.9629,285.1553,0.00030871,4.633e-05,0.0,0 STARLINK-4210,1 52874U 22062AW  24130.74191149  .00004633  00000-0  30871-3 0  9992,2 52874  53.2165 137.1441 0001716  74.9629 285.1553 15.08876288105078,6917.769,95.435,540.822,538.447,0.0
52874.0,STARLINK-4210,PAYLOAD,2024-05-10 00:09:54,15.08867661,0.0003074,53.2144,135.9552,78.7756,281.3582,0.00036172,5.478e-05,0.0,0 STARLINK-4210,1 52874U 22062AW  24131.00687742  .00005478  00000-0  36172-3 0  9999,2 52874  53.2144 135.9552 0003074  78.7756 281.3582 15.08867661105600,6917.796,95.436,541.787,537.534,0.0
52874.0,STARLINK-4210,PAYLOAD,2024-05-10 06:31:28,15.08836544,0.0001418,53.2154,134.7638,80.5721,279.5432,-1.4685e-05,-5.22e-06,0.0,0 STARLINK-4210,1 52874U 22062AW  24131.27185680 -.00000522  00000-0 -14685-4 0  9995,2 52874  53.2154 134.7638 0001418  80.5721 279.5432 15.08836544105649,6917.891,95.438,540.737,538.775,0.0
52874.0,STARLINK-4210,PAYLOAD,2024-05-10 17:39:10,15.08842469,0.0001513,53.2155,132.6815,82.4355,277.6808,2.8588e-05,1.67e-06,0.0,0 STARLINK-4210,1 52874U 22062AW  24131.73553393  .00000167  00000-0  28588-4 0  9996,2 52874  53.2155 132.6815 0001513  82.4355 277.6808 15.08842469105227,6917.873,95.437,540.785,538.691,0.0
52874.0,STARLINK-4210,PAYLOAD,2024-05-11 04:46:51,15.08848048,0.0001706,53.2163,130.5999,83.4378,276.6809,1.1147e-05,-1.11e-06,0.0,0 STARLINK-4210,1 52874U 22062AW  24132.19921033 -.00000111  00000-0  11147-4 0  9990,2 52874  53.2163 130.5999 0001706  83.4378 276.6809 15.08848048105786,6917.856,95.437,540.901,538.541,0.0
52874.0,STARLINK-4210,PAYLOAD,2024-05-11 06:22:14,15.08851441,0.0001694,53.216,130.3025,87.2362,272.8824,3.8991e-05,3.33e-06,0.0,0 STARLINK-4210,1 52874U 22062AW  24132.26544751  .00000333  00000-0  38991-4 0  9997,2 52874  53.2160 130.3025 0001694  87.2362 272.8824 15.08851441105306,6917.845,95.437,540.882,538.539,0.0
52874.0,STARLINK-4210,PAYLOAD,2024-05-12 06:13:03,15.08799084,0.0001679,53.2158,125.841,95.2725,264.8459,-0.00092465,-0.00014957,0.0,0 STARLINK-4210,1 52874U 22062AW  24133.25906609 -.00014957  00000-0 -92465-3 0  9995,2 52874  53.2158 125.8410 0001679  95.2725 264.8459 15.08799084105944,6918.005,95.44,541.032,538.709,0.0
52874.0,STARLINK-4210,PAYLOAD,2024-05-12 09:23:50,15.087943,0.0001655,53.2159,125.2471,97.6896,262.4284,-0.00068598,-0.00011175,0.0,0 STARLINK-4210,1 52874U 22062AW  24133.39155153 -.00011175  00000-0 -68598-3 0  9999,2 52874  53.2159 125.2471 0001655  97.6896 262.4284 15.08794300105479,6918.02,95.44,541.03,538.74,0.0
52874.0,STARLINK-4210,PAYLOAD,2024-05-13 04:28:28,15.0885598,0.0002205,53.217,121.6791,99.7536,260.3705,0.0014268,0.00022503,0.0,0 STARLINK-4210,1 52874U 22062AW  24134.18644218  .00022503  00000-0  14268-2 0  9991,2 52874  53.2170 121.6791 0002205  99.7536 260.3705 15.08855980106088,6917.832,95.437,541.222,538.171,0.0
52874.0,STARLINK-4210,PAYLOAD,2024-05-13 06:03:51,15.08872136,0.0001927,53.2163,121.3829,104.4023,255.7183,0.001586,0.00025066,0.0,0 STARLINK-4210,1 52874U 22062AW  24134.25267966  .00025066  00000-0  15860-2 0  9996,2 52874  53.2163 121.3829 0001927 104.4023 255.7183 15.08872136106095,6917.782,95.436,540.98,538.314,0.0
52874.0,STARLINK-4210,PAYLOAD,2024-05-13 15:36:09,15.08886772,0.0001871,53.2163,119.5983,105.2046,254.9153,0.00044563,6.82e-05,0.0,0 STARLINK-4210,1 52874U 22062AW  24134.65010723  .00006820  00000-0  44563-3 0  9997,2 52874  53.2163 119.5983 0001871 105.2046 254.9153 15.08886772105668,6917.737,95.435,540.897,538.308,0.0
52874.0,STARLINK-4210,PAYLOAD,2024-05-14 04:19:14,15.0885259,0.0001624,53.2166,117.2207,107.0652,253.0518,-0.00012396,-2.261e-05,0.0,0 STARLINK-4210,1 52874U 22062AW  24135.18002688 -.00002261  00000-0 -12396-3 0  9993,2 52874  53.2166 117.2207 0001624 107.0652 253.0518 15.08852590106234,6917.842,95.437,540.83,538.583,0.0
52874.0,STARLINK-4210,PAYLOAD,2024-05-14 09:05:23,15.08852404,0.0001535,53.2168,116.3291,100.9815,259.135,0.00012457,1.696e-05,0.0,0 STARLINK-4210,1 52874U 22062AW  24135.37874695  .00001696  00000-0  12457-3 0  9996,2 52874  53.2168 116.3291 0001535 100.9815 259.1350 15.08852404105776,6917.842,95.437,540.769,538.646,0.0
52874.0,STARLINK-4210,PAYLOAD,2024-05-14 15:26:56,15.08849991,0.0001483,53.2161,115.1369,93.5235,266.5927,0.0007445,0.00011584,0.0,0 STARLINK-4210,1 52874U 22062AW  24135.64370873  .00011584  00000-0  74450-3 0  9993,2 52874  53.2161 115.1369 0001483  93.5235 266.5927 15.08849991105811,6917.85,95.437,540.741,538.689,0.0
52874.0,STARLINK-4210,PAYLOAD,2024-05-15 05:45:24,15.08849659,0.0001738,53.2168,112.4633,107.3867,252.7315,0.00013525,1.866e-05,0.0,0 STARLINK-4210,1 52874U 22062AW  24136.23986716  .00001866  00000-0  13525-3 0  9996,2 52874  53.2168 112.4633 0001738 107.3867 252.7315 15.08849659106393,6917.851,95.437,540.918,538.514,0.0
52874.0,STARLINK-4210,PAYLOAD,2024-05-15 07:20:47,15.08850719,0.0001742,53.2168,112.1657,105.0174,255.1011,0.00021115,3.075e-05,0.0,0 STARLINK-4210,1 52874U 22062AW  24136.30610711  .00003075  00000-0  21115-3 0  9991,2 52874  53.2168 112.1657 0001742 105.0174 255.1011 15.08850719105913,6917.848,95.437,540.918,538.508,0.0
